NORAD_CAT_ID,OBJECT_NAME,OBJECT_TYPE,EPOCH,MEAN_MOTION,ECCENTRICITY,INCLINATION,RA_OF_ASC_NODE,ARG_OF_PERICENTER,MEAN_ANOMALY,BSTAR,MEAN_MOTION_DOT,MEAN_MOTION_DDOT,TLE_LINE0,TLE_LINE1,TLE_LINE2,SEMIMAJOR_AXIS,PERIOD,APOGEE,PERIGEE,DECAYED
56448.0,STARLINK-5990,PAYLOAD,2024-02-18 13:41:08,14.98333318,0.0002915,69.9987,235.8455,268.7466,91.3359,1.942e-05,1.39e-06,0.0,0 STARLINK-5990,1 56448U 23064A   24049.57024161  .00000139  00000-0  19420-4 0  9990,2 56448  69.9987 235.8455 0002915 268.7466  91.3359 14.98333318 42880,6950.183,96.107,574.074,570.022,0.0
56448.0,STARLINK-5990,PAYLOAD,2024-02-18 20:05:40,14.98334584,0.0002901,69.9987,235.1719,269.4262,90.6564,2.7308e-05,2.33e-06,0.0,0 STARLINK-5990,1 56448U 23064A   24049.83728007  .00000233  00000-0  27308-4 0  9998,2 56448  69.9987 235.1719 0002901 269.4262  90.6564 14.98334584 43284,6950.179,96.107,574.06,570.027,0.0
56448.0,STARLINK-5990,PAYLOAD,2024-02-18 21:41:49,14.98334083,0.0002907,69.9987,235.0036,269.3606,90.722,2.1459e-05,1.63e-06,0.0,0 STARLINK-5990,1 56448U 23064A   24049.90404037  .00000163  00000-0  21459-4 0  9993,2 56448  69.9987 235.0036 0002907 269.3606  90.7220 14.98334083 42937,6950.18,96.107,574.066,570.025,0.0
56448.0,STARLINK-5990,PAYLOAD,2024-02-19 05:42:29,14.98328647,0.0002949,69.9986,234.1617,270.606,89.4761,-1.3788e-05,-2.58e-06,0.0,0 STARLINK-5990,1 56448U 23064A   24050.23784433 -.00000258  00000-0 -13788-4 0  9995,2 56448  69.9986 234.1617 0002949 270.6060  89.4761 14.98328647 43346,6950.197,96.107,574.112,570.012,0.0
56448.0,STARLINK-5990,PAYLOAD,2024-02-19 13:43:10,14.9832514,0.0002979,69.9984,233.3198,270.1867,89.8951,1.7769e-05,1.19e-06,0.0,0 STARLINK-5990,1 56448U 23064A   24050.57164600  .00000119  00000-0  17769-4 0  9997,2 56448  69.9984 233.3198 0002979 270.1867  89.8951 14.98325140 43038,6950.208,96.107,574.143,570.002,0.0
56448.0,STARLINK-5990,PAYLOAD,2024-02-19 21:43:50,14.98324944,0.0002994,69.9986,232.4782,270.1643,89.9173,2.3208e-06,-6.5e-07,0.0,0 STARLINK-5990,1 56448U 23064A   24050.90544733 -.00000065  00000-0  23208-5 0  9990,2 56448  69.9986 232.4782 0002994 270.1643  89.9173 14.98324944 43081,6950.209,96.107,574.154,569.993,0.0
56448.0,STARLINK-5990,PAYLOAD,2024-02-20 12:09:02,14.98331596,0.0003019,69.9984,230.9629,270.1239,89.9574,1.798e-05,1.22e-06,0.0,0 STARLINK-5990,1 56448U 23064A   24051.50628326  .00000122  00000-0  17980-4 0  9990,2 56448  69.9984 230.9629 0003019 270.1239  89.9574 14.98331596 43538,6950.188,96.107,574.151,569.955,0.0
56448.0,STARLINK-5990,PAYLOAD,2024-02-20 13:45:10,14.98331322,0.0003022,69.9984,230.7946,270.1234,89.9579,1.4963e-05,8.6e-07,0.0,0 STARLINK-5990,1 56448U 23064A   24051.57304343  .00000086  00000-0  14963-4 0  9994,2 56448  69.9984 230.7946 0003022 270.1234  89.9579 14.98331322 43180,6950.189,96.107,574.154,569.953,0.0
56448.0,STARLINK-5990,PAYLOAD,2024-02-20 21:45:51,14.98333061,0.0003049,69.9986,229.9531,270.6104,89.4706,-1.4255e-06,-1.1e-06,0.0,0 STARLINK-5990,1 56448U 23064A   24051.90684240 -.00000110  00000-0 -14255-5 0  9993,2 56448  69.9986 229.9531 0003049 270.6104  89.4706 14.98333061 43237,6950.183,96.107,574.168,569.929,0.0
56448.0,STARLINK-5990,PAYLOAD,2024-02-21 12:11:03,14.98330244,0.0003072,69.9987,228.4382,270.6434,89.4373,6.6648e-05,7.02e-06,0.0,0 STARLINK-5990,1 56448U 23064A   24052.50768158  .00000702  00000-0  66648-4 0  9998,2 56448  69.9987 228.4382 0003072 270.6434  89.4373 14.98330244 43687,6950.192,96.107,574.192,569.922,0.0
56448.0,STARLINK-5990,PAYLOAD,2024-02-21 13:47:11,14.9833064,0.0003071,69.9988,228.2699,270.6318,89.4489,6.8938e-05,7.3e-06,0.0,0 STARLINK-5990,1 56448U 23064A   24052.57444115  .00000730  00000-0  68938-4 0  9994,2 56448  69.9988 228.2699 0003071 270.6318  89.4489 14.98330640 43337,6950.191,96.107,574.19,569.922,0.0
56448.0,STARLINK-5990,PAYLOAD,2024-02-21 21:47:51,14.98330869,0.0002907,69.9991,227.4283,267.6341,92.4485,9.2044e-05,1.005e-05,0.0,0 STARLINK-5990,1 56448U 23064A   24052.90824013  .00001005  00000-0  92044-4 0  9991,2 56448  69.9991 227.4283 0002907 267.6341  92.4485 14.98330869 43388,6950.19,96.107,574.076,570.035,0.0
56448.0,STARLINK-5990,PAYLOAD,2024-02-22 12:13:04,14.98333565,0.0002858,69.9994,225.9137,272.2427,87.8404,-6.5089e-05,-8.7e-06,0.0,0 STARLINK-5990,1 56448U 23064A   24053.50908279 -.00000870  00000-0 -65089-4 0  9995,2 56448  69.9994 225.9137 0002858 272.2427  87.8404 14.98333565 43839,6950.182,96.107,574.033,570.061,0.0
56448.0,STARLINK-5990,PAYLOAD,2024-02-22 13:49:12,14.98331049,0.000295,69.9994,225.7454,271.5359,88.5462,-2.5667e-05,-3.99e-06,0.0,0 STARLINK-5990,1 56448U 23064A   24053.57584290 -.00000399  00000-0 -25667-4 0  9999,2 56448  69.9994 225.7454 0002950 271.5359  88.5462 14.98331049 43486,6950.19,96.107,574.105,570.004,0.0
56448.0,STARLINK-5990,PAYLOAD,2024-02-22 21:49:53,14.98327193,0.0002613,69.9994,224.9038,273.3884,86.6976,5.447e-05,5.57e-06,0.0,0 STARLINK-5990,1 56448U 23064A   24053.90964359  .00000557  00000-0  54470-4 0  9992,2 56448  69.9994 224.9038 0002613 273.3884  86.6976 14.98327193 43534,6950.202,96.107,573.883,570.25,0.0
56448.0,STARLINK-5990,PAYLOAD,2024-02-23 12:15:05,14.98332287,0.0002967,69.9996,223.3891,269.5494,90.5325,-1.1843e-05,-2.34e-06,0.0,0 STARLINK-5990,1 56448U 23064A   24054.51048052 -.00000234  00000-0 -11843-4 0  9994,2 56448  69.9996 223.3891 0002967 269.5494  90.5325 14.98332287 43983,6950.186,96.107,574.113,569.989,0.0
56448.0,STARLINK-5990,PAYLOAD,2024-02-23 13:51:13,14.9833297,0.0003011,69.9995,223.2211,269.8986,90.1828,-1.9971e-05,-3.31e-06,0.0,0 STARLINK-5990,1 56448U 23064A   24054.57724033 -.00000331  00000-0 -19971-4 0  9998,2 56448  69.9995 223.2211 0003011 269.8986  90.1828 14.98332970 43632,6950.184,96.107,574.141,569.956,0.0
56448.0,STARLINK-5990,PAYLOAD,2024-02-23 21:51:53,14.98326643,0.0002975,69.9995,222.379,267.6807,92.4011,0.00012878,1.444e-05,0.0,0 STARLINK-5990,1 56448U 23064A   24054.91104004  .00001444  00000-0  12878-3 0  9998,2 56448  69.9995 222.3790 0002975 267.6807  92.4011 14.98326643 43684,6950.203,96.107,574.136,570.001,0.0
56448.0,STARLINK-5990,PAYLOAD,2024-02-24 12:17:06,14.98328704,0.0002936,69.9996,220.8639,268.8951,91.1872,3.7228e-06,-4.9e-07,0.0,0 STARLINK-5990,1 56448U 23064A   24055.51188133 -.00000049  00000-0  37228-5 0  9999,2 56448  69.9996 220.8639 0002936 268.8951  91.1872 14.98328704 44132,6950.197,96.107,574.102,570.021,0.0
56448.0,STARLINK-5990,PAYLOAD,2024-02-24 13:53:14,14.98327843,0.000295,69.9995,220.6956,268.896,91.1861,-3.4369e-06,-1.34e-06,0.0,0 STARLINK-5990,1 56448U 23064A   24055.57864212 -.00000134  00000-0 -34369-5 0  9993,2 56448  69.9995 220.6956 0002950 268.8960  91.1861 14.98327843 43788,6950.2,96.107,574.115,570.014,0.0
56448.0,STARLINK-5990,PAYLOAD,2024-02-24 17:05:30,14.98329258,0.0002925,69.9996,220.359,268.4658,91.6166,1.6385e-05,1.03e-06,0.0,0 STARLINK-5990,1 56448U 23064A   24055.71216075  .00000103  00000-0  16385-4 0  9998,2 56448  69.9996 220.3590 0002925 268.4658  91.6166 14.98329258 43800,6950.195,96.107,574.093,570.027,0.0
56448.0,STARLINK-5990,PAYLOAD,2024-02-25 12:19:07,14.98328956,0.0002926,69.9989,218.3384,265.7212,94.3613,-3.9921e-05,-5.69e-06,0.0,0 STARLINK-5990,1 56448U 23064A   24056.51328298 -.00000569  00000-0 -39921-4 0  9997,2 56448  69.9989 218.3384 0002926 265.7212  94.3613 14.98328956 44281,6950.196,96.107,574.095,570.027,0.0
56448.0,STARLINK-5990,PAYLOAD,2024-02-25 13:55:15,14.98328266,0.0003057,69.9991,218.1702,269.7851,90.2957,-3.2553e-05,-4.81e-06,0.0,0 STARLINK-5990,1 56448U 23064A   24056.58004330 -.00000481  00000-0 -32553-4 0  9999,2 56448  69.9991 218.1702 0003057 269.7851  90.2957 14.98328266 43936,6950.198,96.107,574.188,569.939,0.0
56448.0,STARLINK-5990,PAYLOAD,2024-02-25 20:19:47,14.98330613,0.0003055,69.9993,217.497,269.8596,90.2213,-4.0621e-06,-1.41e-06,0.0,0 STARLINK-5990,1 56448U 23064A   24056.84708107 -.00000141  00000-0 -40621-5 0  9990,2 56448  69.9993 217.4970 0003055 269.8596  90.2213 14.98330613 43970,6950.191,96.107,574.179,569.933,0.0
56448.0,STARLINK-5990,PAYLOAD,2024-02-26 12:21:08,14.98329955,0.0003093,69.9989,215.8133,269.8067,90.2738,5.1425e-05,5.21e-06,0.0,0 STARLINK-5990,1 56448U 23064A   24057.51467975  .00000521  00000-0  51425-4 0  9993,2 56448  69.9989 215.8133 0003093 269.8067  90.2738 14.98329955 44434,6950.193,96.107,574.208,569.908,0.0
56448.0,STARLINK-5990,PAYLOAD,2024-02-26 13:57:16,14.98330166,0.0003094,69.999,215.645,269.8006,90.2799,5.2746e-05,5.36e-06,0.0,0 STARLINK-5990,1 56448U 23064A   24057.58143958  .00000536  00000-0  52746-4 0  9995,2 56448  69.9990 215.6450 0003094 269.8006  90.2799 14.98330166 44084,6950.192,96.107,574.208,569.907,0.0
56448.0,STARLINK-5990,PAYLOAD,2024-02-26 20:21:48,14.98334308,0.0003111,69.9992,214.972,270.2066,89.8737,5.4485e-05,5.57e-06,0.0,0 STARLINK-5990,1 56448U 23064A   24057.84847667  .00000557  00000-0  54485-4 0  9997,2 56448  69.9992 214.9720 0003111 270.2066  89.8737 14.98334308 44123,6950.18,96.107,574.207,569.882,0.0
56448.0,STARLINK-5990,PAYLOAD,2024-02-27 12:23:09,14.98325763,0.0003028,69.9995,213.2884,269.9782,90.103,-2.6843e-06,-1.25e-06,0.0,0 STARLINK-5990,1 56448U 23064A   24058.51608402 -.00000125  00000-0 -26843-5 0  9995,2 56448  69.9995 213.2884 0003028 269.9782  90.1030 14.98325763 44582,6950.206,96.107,574.176,569.966,0.0
56448.0,STARLINK-5990,PAYLOAD,2024-02-27 13:59:17,14.9832588,0.0003029,69.9995,213.1201,270.003,90.0782,-1.6129e-06,-1.12e-06,0.0,0 STARLINK-5990,1 56448U 23064A   24058.58284405 -.00000112  00000-0 -16129-5 0  9997,2 56448  69.9995 213.1201 0003029 270.0030  90.0782 14.98325880 44239,6950.206,96.107,574.176,569.965,0.0
56448.0,STARLINK-5990,PAYLOAD,2024-02-27 20:23:49,14.98328762,0.0003071,69.9996,212.4472,273.3484,86.7324,-5.0331e-08,-9.4e-07,0.0,0 STARLINK-5990,1 56448U 23064A   24058.84988277 -.00000094  00000-0 -50331-7 0  9998,2 56448  69.9996 212.4472 0003071 273.3484  86.7324 14.98328762 44278,6950.197,96.107,574.196,569.927,0.0
